StreetAddress	City	State	ZipCode
82 Quay Street	NAVENBY		LN5 6UT
80 Leicester Road	AVETON GIFFORD		TQ7 0ZG
32 Friar Street	CLEIGH		PA34 8GJ
43 Vicar Lane	SARNAU		SA44 3ZR
90 Lammas Street	GREAT CRAKEHALL		DL8 0AH
71 Main Road	AUCHTERARDER		PH3 8SS
46 Stroude Road	SIXPENNY HANDLEY		SP5 0BJ
74 Guild Street	LONDON		SE7 5BY
28 Neville Street	IDE HILL		TN14 3RE
2 Scrimshire Lane	ASHWICK		BA3 2AZ
83 Great Western Road	LOOSE		ME15 3GE
35 Grey Street	KILBRENAN		PA73 0XA
36 Well Lane	PARKHOUSE		NP5 1TE
14 Withers Close	ALLENSMORE		HR2 3ZU
2 Holgate Rd	RANBY		LN3 1GE
54 Harrogate Road	SADDELL		PA28 6SX
55 St James Boulevard	HORLEY		RH6 9YB
77 Academy Street	BENBUIE		DG3 2UP
2 Wern Ddu Lane	LUBENHAM		LE16 0AX
88 Warren St	WEST HEATH		B38 8HF
93 Fosse Way	ARDMOLICH		PH36 6AY
13 Hart Road	NORTHACRE		NR17 9FS
79 Grey Street	KENTON		EX6 1RY
78 Kendell Street	SHENSTONE		DY10 7ZP
32 Park Terrace	GILLOW HEATH		ST8 4AA
2 Old Edinburgh Road	BELHAVEN		EH42 5HF
43 Marlborough Crescent	SOUTHGATE		PE31 9AU
82 Station Rd	QUARR HILL		PO33 8SA
45 Ballifeary Road	BALLIMORE		FK19 7DB
25 Jubilee Drive	CASTON		NR17 9HN
10 Ross Road	MARSTON		NG32 4EG
75 Whitby Road	DHOWIN		IM7 9EW
54 Tadcaster Rd	PIPERHALL		PA20 1AF
79 Earls Avenue	WHITEBROOK		NP5 2FN
29 Lamphey Road	THORLEY STREET		CM23 0XE
63 Telford Street	BARGOED		CF81 1FF
39 Pendwyallt Road	BURRY PORT		SA16 1GB
81 Argyll Road	LLANDDEWI		SA3 5FB
5 Hindhead Road	EARLSTON		TD4 3BQ
63 Winchester Rd	MICKLEHURST		OL5 7ZQ
73 Hindhead Road	EARL'S GREEN		IP14 7RH
20 Emerson Road	KIRBY GRINDALYTHE		YO17 6EE
87 Gordon Terrace	BASILDON		SS14 2XB
45 Park Terrace	GITTISHAM		EX14 6HN
16 Stroud Rd	OAKLEY		RG23 5RQ
91 Southern Way	NORTH KELSEY		LN7 0DL
77 Maidstone Road	WENNINGTON		LA2 1NB
91 Hudson St	DUNSDEN GREEN		RG4 7LH
30 Harrogate Road	RUTHVEN		PH12 3HF
96 Scotsburn Rd	TAI'N LON		LL54 9AG
13 Ings Lane	DEAL HALL		CM0 2ZT
74 Redcliffe Way	WOOKEY HOLE		BA5 5WW
84 Stroud Rd	OLD BRAMPTON		S42 4ZN
61 Foregate Street	COCKFIELD		DL13 7PR
50 North Promenade	DOLTON		EX19 1QY
85 Stroud Rd	OKEHAMPTON CAMP		EX20 8GN
41 Southlands Road	PONTNEWYNYDD		NP4 2UT
52 Redcliffe Way	WOOLAVINGTON		TA7 6LX
37 Earls Avenue	WHITEWELL		AB43 0PH
68 St Maurices Road	PRESTON		ME13 1TQ
92 Holburn Lane	HEIGHINGTON		DL5 0RS
47 Fore St	TULLICH		IV1 7LJ
44 Worthy Lane	MATSON		GL4 5ZW
20 Wenlock Terrace	PEOVER HEATH		WA16 7HW
8 Abbey Row	NORWICH		NR2 0FD
19 Wrexham Road	FENNY STRATFORD		MK2 5ZF
32 Witney Way	KIRKTON OF MARYCULTER		AB1 6YF
91 Stroude Road	SISLAND		NR14 8DY
99 Whatlington Road	COULTERSHAW BRIDGE		GU28 2HD
44 Walwyn Rd	CHAPMORE END		SG12 4SA
72 Quay Street	NAZEING		EN9 6SA
47 Main Rd	FORD		TQ7 5JA
47 Wrexham Rd	EWLOE		CH5 6QY
66 Folkestone Road	WINSTER		DE4 8EG
53 Bullwood Rd	ST ANTHONY		TR2 0TF
86 Roman Rd	LEIGH BECK		SS8 8UF
27 Lammas Street	GRAVEN		ZE2 1YB
27 Bridge Street	GOATFIELD		PA32 6ZH
4 Seaford Road	CUMNOR		OX2 2GW
78 Boat Lane	REIGATE		RH2 1HP
72 Worthy Lane	MATSON		GL4 3AS
6 Scotsburn Rd	TAL-Y-CAFN		LL28 8YW
37 Felix Lane	SHOUGHLAIGE-E-CAINE		IM6 2JX
41 Middlewich Road	FITZWILLIAM		WF9 9ED
5 Roman Rd	LEIGHTON BROMSWOLD		PE18 6QG
98 Southern Way	NORTH HILL		PL15 1HR
60 Bury Rd	HAMPSTHWAITE		HG3 8LE
50 Bullwood Rd	ST GENNYS		EX23 8ET
89 Dover Road	WESTBURY-ON-SEVERN		GL14 0DB
8 Ponteland Rd	HUGH TOWN		TR21 3FH
76 Quay Street	NEBO		LL70 7QX
1 Harrogate Road	RUSHFORD		IP24 2RT
66 Overton Circle	LITTLE WALSINGHAM		NR22 1FZ
54 Consett Rd	HILLSIDE		DD10 8BX
80 Hendford Hill	MOSS		DN6 6JH
14 Walden Road	GREATHAM		TS25 9RE
21 Sloe Lane	CROYDON		CR1 6XW
86 Park Avenue	LAVERTON		WR12 2PH
44 Warner Close	HATLEY ST GEORGE		SG19 7TT
32 High St	THORPE MALSOR		NN14 8JF
